     2.11           N: GPS NAV DATA                         RINEX VERSION / TYPE
teqc  2018Dec12     gpsops              20220524 01:03:54UTCPGM / RUN BY / DATE
Linux 2.6.32-573.12.1.x86_64|x86_64|gcc -static|Linux 64|=+ COMMENT
CHPI                                    MARKER NAME         COMMENT
41609M003                               MARKER NUMBER       COMMENT
4164613.9484 -4162456.9866 -2445028.7316                    COMMENT
This data is provided as a public service by NASA/JPL.      COMMENT
No warranty is expressed or implied regarding suitability   COMMENT
for use.  For further information, contact:                 COMMENT
ggnops at jpl dot nasa dot gov                              COMMENT
                                                            END OF HEADER
 3 22  5 23 18  0  0.0-2.546072937548D-04-1.330136001343D-11 0.000000000000D+00
    9.600000000000D+01-2.631250000000D+01 4.449828210349D-09 2.068321066789D-01
   -1.322478055954D-06 4.176798509434D-03 4.453584551811D-06 5.153621995926D+03
    1.512000000000D+05-1.862645149231D-09-2.629041573951D+00 2.607703208923D-08
    9.739245289173D-01 2.977187500000D+02 9.592426187054D-01-8.255343868208D-09
   -8.178912113090D-11 1.000000000000D+00 2.211000000000D+03 0.000000000000D+00
    2.000000000000D+00 0.000000000000D+00 1.862645149231D-09 9.600000000000D+01
    1.440180000000D+05 4.000000000000D+00
 9 22  5 23 18  0  0.0-3.344500437379D-04 3.069544618484D-12 0.000000000000D+00
    5.400000000000D+01-5.903125000000D+01 4.556975530608D-09-2.255712854489D+00
   -3.160908818245D-06 2.086018794216D-03 9.307637810707D-06 5.153563007355D+03
    1.512000000000D+05 7.264316082001D-08-1.601267121237D+00 4.842877388000D-08
    9.540368744595D-01 1.973437500000D+02 1.877881009853D+00-8.020334079107D-09
   -2.121516941125D-10 1.000000000000D+00 2.211000000000D+03 0.000000000000D+00
    2.000000000000D+00 0.000000000000D+00 1.396983861923D-09 5.400000000000D+01
    1.440180000000D+05 4.000000000000D+00
 4 22  5 23 18  0  0.0-1.644380390644D-04 3.751665644813D-12 0.000000000000D+00
    1.580000000000D+02-5.753125000000D+01 4.359467303597D-09 3.060490603821D+00
   -3.039836883545D-06 1.828447682783D-03 9.192153811455D-06 5.153617078781D+03
    1.512000000000D+05-3.725290298462D-09-1.547502511897D+00 1.117587089539D-08
    9.609892638944D-01 2.026562500000D+02-2.964988894866D+00-7.946759585863D-09
   -1.371485699313D-10 1.000000000000D+00 2.211000000000D+03 0.000000000000D+00
    2.000000000000D+00 0.000000000000D+00-4.656612873077D-09 9.260000000000D+02
    1.440180000000D+05 4.000000000000D+00
30 22  5 23 18  0  0.0-5.289702676237D-04-1.364242052659D-12 0.000000000000D+00
    7.500000000000D+01 4.587500000000D+01 4.994136597264D-09 6.317600694913D-01
    2.460554242134D-06 5.849305074662D-03 8.977949619293D-06 5.153766151428D+03
    1.512000000000D+05-3.725290298462D-08-5.176687986405D-01 2.440065145493D-07
    9.360963142260D-01 1.941250000000D+02-2.689159439016D+00-8.262129865158D-09
    3.110843864848D-10 1.000000000000D+00 2.211000000000D+03 0.000000000000D+00
    2.000000000000D+00 0.000000000000D+00 3.725290298462D-09 7.500000000000D+01
    1.440180000000D+05 4.000000000000D+00
 6 22  5 23 18  0  0.0 3.147423267365D-04 1.489297574153D-11 0.000000000000D+00
    3.100000000000D+01 4.403125000000D+01 3.968736742387D-09 1.544319219711D+00
    2.313405275345D-06 2.545509487391D-03 7.307156920433D-06 5.153729679108D+03
    1.512000000000D+05 5.029141902924D-08 2.612262370253D+00-1.862645149231D-09
    9.872721305671D-01 2.480937500000D+02-8.537281542101D-01-7.844612473883D-09
    9.714690370134D-11 1.000000000000D+00 2.211000000000D+03 0.000000000000D+00
    2.000000000000D+00 0.000000000000D+00 3.725290298462D-09 3.100000000000D+01
    1.440180000000D+05 4.000000000000D+00
16 22  5 23 18  0  0.0-5.033332854509D-04-3.183231456205D-12 0.000000000000D+00
    1.050000000000D+02 2.087500000000D+01 4.607691928864D-09-1.819349401491D+00
    8.475035429001D-07 1.273258600850D-02 4.863366484642D-06 5.153649913788D+03
    1.512000000000D+05 1.601874828339D-07 6.020228202098D-01-9.685754776001D-08
    9.693268524228D-01 2.832500000000D+02 7.294189433182D-01-8.072121950566D-09
    1.292910997790D-10 1.000000000000D+00 2.211000000000D+03 0.000000000000D+00
    2.000000000000D+00 0.000000000000D+00-1.024454832077D-08 1.050000000000D+02
    1.440180000000D+05 4.000000000000D+00
 8 22  5 23 18  0  0.0-6.919028237462D-05-1.477928890381D-12 0.000000000000D+00
    5.100000000000D+01-6.281250000000D+00 4.514830917973D-09-2.788143996040D+00
   -3.445893526077D-07 7.443630602211D-03 8.378177881241D-06 5.153768186569D+03
    1.512000000000D+05-1.732259988785D-07 1.538329655662D+00-5.774199962616D-08
    9.633791658663D-01 2.225312500000D+02 1.681795376499D-01-7.971403469522D-09
   -2.407243128482D-10 1.000000000000D+00 2.211000000000D+03 0.000000000000D+00
    2.000000000000D+00 0.000000000000D+00 5.122274160385D-09 5.100000000000D+01
    1.440180000000D+05 4.000000000000D+00
11 22  5 23 18  0  0.0-2.155080437660D-05 4.092726157978D-12 0.000000000000D+00
    5.700000000000D+01 4.871875000000D+01 4.490187034313D-09-2.767811101002D+00
    2.453103661537D-06 3.871812950820D-04 7.079914212227D-06 5.153581125259D+03
    1.512000000000D+05 7.450580596924D-09 2.662020026493D+00-7.450580596924D-09
    9.631270451016D-01 2.445000000000D+02 2.799157377306D+00-8.148196547949D-09
    1.657211886670D-10 1.000000000000D+00 2.211000000000D+03 0.000000000000D+00
    2.000000000000D+00 6.300000000000D+01-8.381903171539D-09 3.130000000000D+02
    1.440180000000D+05 4.000000000000D+00
14 22  5 23 18  0  0.0-1.094844192266D-04-1.477928890381D-12 0.000000000000D+00
    1.990000000000D+02 1.671875000000D+01 5.015566061316D-09 1.785936389133D-02
    9.424984455109D-07 1.892117783427D-03 5.437061190605D-06 5.153654012680D+03
    1.512000000000D+05 0.000000000000D+00 5.506415077662D-01 9.313225746155D-09
    9.528546596384D-01 2.699687500000D+02 3.106728558160D+00-8.356062349252D-09
   -2.000083311498D-11 1.000000000000D+00 2.211000000000D+03 0.000000000000D+00
    2.000000000000D+00 0.000000000000D+00-7.916241884232D-09 4.550000000000D+02
    1.441860000000D+05 4.000000000000D+00
27 22  5 23 18  0  0.0 2.072276547551D-04 5.343281372916D-12 0.000000000000D+00
    7.500000000000D+01-1.340625000000D+01 4.329823211659D-09-2.748690094615D+00
   -8.549541234970D-07 1.054282812402D-02 8.467584848404D-06 5.153656934738D+03
    1.512000000000D+05 0.000000000000D+00 1.558571089062D+00-2.328306436539D-07
    9.721173715848D-01 2.224687500000D+02 6.821716164660D-01-7.859970256453D-09
   -2.071514858337D-10 1.000000000000D+00 2.211000000000D+03 0.000000000000D+00
    2.800000000000D+00 0.000000000000D+00 1.862645149231D-09 7.500000000000D+01
    1.443780000000D+05 4.000000000000D+00
 2 22  5 23 18  0  0.0-6.531649269164D-04 1.136868377216D-13 0.000000000000D+00
    2.400000000000D+01 4.187500000000D+01 4.404826335840D-09 1.473324626022D+00
    1.709908246994D-06 2.041298418771D-02 7.793307304382D-06 5.153669057846D+03
    1.512000000000D+05 1.937150955200D-07 2.529257077229D+00-5.029141902924D-07
    9.660296545098D-01 2.298437500000D+02-1.417265207310D+00-8.043192174096D-09
    1.485776174256D-10 1.000000000000D+00 2.211000000000D+03 0.000000000000D+00
    2.000000000000D+00 0.000000000000D+00-1.769512891769D-08 2.400000000000D+01
    1.455060000000D+05 4.000000000000D+00
20 22  5 23 18  0  0.0 5.142679437995D-04-1.023181539495D-12 0.000000000000D+00
    5.900000000000D+01-2.137500000000D+01 5.106998441270D-09 2.362842598518D+00
   -1.084059476852D-06 4.797839559615D-03 4.164874553680D-06 5.153578437805D+03
    1.512000000000D+05-1.117587089539D-07-2.786510061375D+00 4.656612873077D-08
    9.433189719244D-01 2.933750000000D+02-3.119519076217D+00-8.524640799792D-09
   -5.678807973718D-11 1.000000000000D+00 2.211000000000D+03 0.000000000000D+00
    2.000000000000D+00 0.000000000000D+00-8.381903171539D-09 5.900000000000D+01
    1.455480000000D+05 4.000000000000D+00
28 22  5 23 18  0  0.0 3.525554202497D-04-7.389644451905D-12 0.000000000000D+00
    5.200000000000D+01 2.115625000000D+01 4.541974905772D-09-2.296238665249D+00
    1.387670636177D-06 1.656427164562D-02 5.476176738739D-06 5.153675430298D+03
    1.512000000000D+05 1.154839992523D-07 6.054643174362D-01 2.644956111908D-07
    9.684943759639D-01 2.722500000000D+02-1.277952327615D+00-7.877470985429D-09
   -8.928943354902D-12 1.000000000000D+00 2.211000000000D+03 0.000000000000D+00
    2.000000000000D+00 6.300000000000D+01-1.117587089539D-08 5.200000000000D+01
    1.479180000000D+05 4.000000000000D+00
 5 22  5 23 18  0  0.0-8.290493860841D-05-1.364242052659D-12 0.000000000000D+00
    6.600000000000D+01-3.409375000000D+01 4.716982195528D-09-2.314379409729D+00
   -1.704320311546D-06 5.983130307868D-03 4.174187779427D-06 5.153723335266D+03
    1.512000000000D+05 2.421438694000D-08-2.670730183684D+00-1.303851604462D-08
    9.609584987272D-01 2.992812500000D+02 1.025871894105D+00-8.265344284766D-09
   -1.571494030463D-11 1.000000000000D+00 2.211000000000D+03 0.000000000000D+00
    2.000000000000D+00 0.000000000000D+00-1.117587089539D-08 6.600000000000D+01
    1.501680000000D+05 4.000000000000D+00
17 22  5 23 18  0  0.0 6.162263453007D-04 4.774847184308D-12 0.000000000000D+00
    6.700000000000D+01 8.593750000000D+00 4.171959493144D-09-2.793975607362D+00
    5.252659320831D-07 1.351302000694D-02 8.512288331985D-06 5.153554578781D+03
    1.512000000000D+05 2.216547727585D-07 1.621749800069D+00 1.788139343262D-07
    9.786038757395D-01 2.220000000000D+02-1.492940161625D+00-7.652461612885D-09
   -1.721500278825D-10 1.000000000000D+00 2.211000000000D+03 0.000000000000D+00
    2.000000000000D+00 0.000000000000D+00-1.117587089539D-08 6.700000000000D+01
    1.506780000000D+05 4.000000000000D+00
